# Some minor planets and their respective satellites, up to the orbit of
# Jupiter. Ceres is defined in dwarfplanets.ssc.

# Heliocentric orbits were taken from the JPL Small-Body Database
# (https://ssd.jpl.nasa.gov/tools/sbdb_lookup.html#/) or queried from the
# Horizons system (https://ssd.jpl.nasa.gov/horizons/).

# Physical parameters of large asteroids are mainly taken from
# Vernazza et al. (2021), A&A 654, A56, "VLT/SPHERE imaging survey of the
# largest main-belt asteroids: Final results and synthesis"
# https://ui.adsabs.harvard.edu/abs/2021A%26A...654A..56V/abstract

# In some cases, rotation parameters have been obtained from the IAUspin files
# available at DAMIT: https://astro.troja.mff.cuni.cz/projects/damit/

# Asteroid colors are derived mainly from SMASS/MITHNEOS spectra
# (http://smass.mit.edu/catalog.php), supplemented by spectra and color indices
# from other sources. These have been converted to RGB values using Askaniy's
# TrueColorTools utility (https://github.com/Askaniy/TrueColorTools).
# Satellites are assumed to have the same color and albedo as their primaries,
# if there's no other data available for them.

# The default asteroid texture is calibrated to an albedo of 0.4, and objects
# which use it (combined with BlendTexture) have their colors divided by its
# brightness (0.665185), so that the resulting appearance matches their
# spherical albedo. Since this quantity isn't well-known for most asteroids, it
# has most often been calculated (A = pq) from the geometric albedo (p) and an
# estimate of the phase integral (q), the latter obtained following Shevchenko
# et al. (2019), A&A 626, A87, "Phase integral of asteroids"; that is, from
# relations to the G or G_1 and G_2 phase parameters.

# The main sources of phase parameters are, in order of preference:
#
# Shevchenko et al. (2022), A&A 666, A190, "Kharkiv database of asteroid
# absolute magnitudes: Comparative analysis with other datasets"
# https://cdsarc.cds.unistra.fr/viz-bin/cat/J/A+A/666/A190
#
# Pravec et al. (2012), Icarus 221, p. 365-387, "Absolute magnitudes of
# asteroids and a revision of asteroid albedo estimates from WISE thermal
# observations"
# https://www.asu.cas.cz/~ppravec/pravecetal2012b.pdf
#
# Tholen, D.J., Ed. (2020). Asteroid Absolute Magnitudes V1.0.
# urn:nasa:pds:compil.ast.magnitude-slope::1.0. NASA Planetary Data System;
# https://doi.org/10.26033/93qf-8s07.
#
# The SsODNet service via ssoCard (https://ssp.imcce.fr/forms/ssocard/)
# has been used as well, and other references are cited where used.

# Notable main-belt asteroids

"2 Pallas:Pallas" "Sol"
{
	Class	"asteroid"
	Mesh	"pallas.cmod"
	MeshCenter	[ 4.014 -10.89 1.574 ]
	Texture	"asteroid.*"
	Color	[ 0.393 0.393 0.386 ]  # a000002.2.txt
	BlendTexture	true
	Radius	284  # maximum semi-axis
	Mass<kg>	204.2e18
	Density	2920
	EllipticalOrbit
	{
		Epoch	2460200.5  # 2023 Sept 13
		Period	4.610604140279951
		SemiMajorAxis	2.770127481405055
		Eccentricity	0.2302291418027128
		Inclination	34.92583508111117
		AscendingNode	172.9188058415808
		ArgOfPericenter	310.8728944588669
		MeanAnomaly	40.59806832021348
	}
	BodyFrame	{ EquatorJ2000 {} }
	UniformRotation  # from DAMIT model 4395
	{
		Period	7.81322
		Inclination	89
		AscendingNode	134
		MeridianAngle	41.7
	}
	LunarLambert	0.9
	# GeomAlbedo	0.155
	Reflectivity	0.055  # for G_1 = 0.36 and G_2 = 0.250
	InfoURL	"https://en.wikipedia.org/wiki/2_Pallas"
}

# Mass and density from Li et al. (2023), AJ 166, 93
#   "Dynamical Masses of 20 Asteroids Determined with Gaia DR3 Asteroid Observations"
#   https://ui.adsabs.harvard.edu/abs/2023AJ....166...93L/abstract
"3 Juno:Juno" "Sol"
{
	Class	"asteroid"
	Mesh	"juno.cmod"
	MeshCenter	[ 1.518 -3.186 -0.7858 ]
	Texture	"asteroid.*"
	Color	[ 0.55 0.531 0.499 ]  # a000003.2.txt
	BlendTexture	true
	Radius	144  # maximum semi-axis
	Mass<kg>	2.75e19
	Density	3200
	EllipticalOrbit
	{
		Epoch	2460200.5  # 2023 Sept 13
		Period	4.361092302470355
		SemiMajorAxis	2.669263108802283
		Eccentricity	0.2562134612917888
		Inclination	12.9905522351009
		AscendingNode	169.8391668701912
		ArgOfPericenter	247.7379377753803
		MeanAnomaly	37.02310816908956
	}
	BodyFrame	{ EquatorJ2000 {} }
	UniformRotation
	{
		Period	7.209531
		Inclination	50
		AscendingNode	199
		MeridianAngle	290.3  # from DAMIT model 786
	}
	LunarLambert	0.9
	# GeomAlbedo	0.202
	Reflectivity	0.103  # for G = 0.320
	InfoURL	"https://en.wikipedia.org/wiki/3_Juno"
}

# Park et al. (2025), Nature Astronomy 9, p. 824-834
#   "A small core in Vesta inferred from Dawn's observations"
#   https://ui.adsabs.harvard.edu/abs/2025NatAs...9..824P/abstract
# Albedos from Li et al. (2013), Icarus 226, p. 1252-1274
#   "Global photometric properties of Asteroid (4) Vesta observed with Dawn Framing Camera"
#   https://ui.adsabs.harvard.edu/abs/2013Icar..226.1252L/abstract
"4 Vesta:Vesta" "Sol"
{
	Class	"asteroid"
	Mesh	"vesta.cmod"  # rotated to the Dawn-Claudia coordinate system
	MeshCenter	[ 2.094 0.0485 5.415 ]
	Texture	"vesta.*"
	Color	[ 1.0 0.982 0.936 ]  # a000004.2.txt
	Radius	284.62  # maximum semi-axis
	Mass<kg>	2.59028e20
	Density	3460
	EllipticalOrbit
	{
		Epoch	2455758.5  # 2011 Jul 16 (Dawn arrival)
		Period	3.62836006200365
		SemiMajorAxis	2.361210923967098
		Eccentricity	0.08832829093309318
		Inclination	7.134622956266294
		AscendingNode	103.9043071984041
		ArgOfPericenter	149.8717478119385
		MeanAnomaly	45.00136736483953
	}

	# Dawn-Claudia coordinate system from Li and Mafi (2013)
	#   "Body-Fixed Coordinate Systems for Asteroid (4) Vesta"
	#   https://sbnarchive.psi.edu/pds3/dawn/fc/DWNVSPG_2/DOCUMENT/VESTA_COORDINATES/VESTA_COORDINATES_131018.HTM
	BodyFrame	{ EquatorJ2000 {} }
	UniformRotation
	{
		Period	5.3421282479
		Inclination	47.765
		AscendingNode	39.031
		MeridianAngle	75.39
	}
	LunarLambert	0.907  # from C_L parameter of Schröder et al. (2014), 2014P&SS..103...66S
	# GeomAlbedo	0.38
	BondAlbedo	0.18  # bolometric
	Reflectivity	0.20
	InfoURL	"https://en.wikipedia.org/wiki/4_Vesta"
}

"7 Iris:Iris" "Sol"
{
	Class	"asteroid"
	Mesh	"iris.cmod"
	MeshCenter	[ -5.488 -2.657 2.734 ]
	Texture	"asteroid.*"
	Color	[ 0.578 0.553 0.508 ]  # a000007.2.txt
	BlendTexture	true
	Radius	130  # maximum semi-axis
	Mass<kg>	13.5e18
	Density	3260
	EllipticalOrbit
	{
		Epoch	2460200.5  # 2023 Sept 13
		Period	3.687351731720197
		SemiMajorAxis	2.386735224876513
		Eccentricity	0.2297678850612325
		Inclination	5.518704224953987
		AscendingNode	259.4983776174604
		ArgOfPericenter	145.4437082806831
		MeanAnomaly	207.8984567898204
	}
	BodyFrame	{ EquatorJ2000 {} }
	UniformRotation
	{
		Period	7.138843
		Inclination	61
		AscendingNode	99
		MeridianAngle	217.5  # from DAMIT model 1854
	}
	LunarLambert	0.9
	# GeomAlbedo	0.279
	Reflectivity	0.112  # for G_1 = 0.358278 and G_2 = 0.304418
	InfoURL	"https://en.wikipedia.org/wiki/7_Iris"
}

"10 Hygiea:Hygiea:A900 GA" "Sol"
{
	Class	"asteroid"
	Mesh	"hygiea.cmod"
	MeshCenter	[ 2.715 -6.39 1.142 ]
	Texture	"asteroid.*"
	Color	[ 0.239 0.238 0.233 ]  # a000010.2.txt
	BlendTexture	true
	Radius	225  # maximum semi-axis
	Mass<kg>	87.4e18
	Density	2060
	EllipticalOrbit
	{
		Epoch	2460200.5  # 2023 Sept 13
		Period	5.564048142612810
		SemiMajorAxis	3.139943146104073
		Eccentricity	0.1110224699444766
		Inclination	3.831824852338094
		AscendingNode	283.1735822202232
		ArgOfPericenter	312.4833682032628
		MeanAnomaly	75.17820822199755
	}
	BodyFrame	{ EquatorJ2000 {} }
	UniformRotation  # from DAMIT model 4392
	{
		Period	13.82559
		Inclination	136
		AscendingNode	49
		MeridianAngle	116.5
	}
	LunarLambert	0.9
	# GeomAlbedo	0.063
	Reflectivity	0.022  # for G_1 = 0.76 and G_2 = 0.030
	InfoURL	"https://en.wikipedia.org/wiki/10_Hygiea"
}

# Shepard et al. (2021), Planet. Sci. J. 2, 125
#   "Asteroid 16 Psyche: Shape, Features, and Global Map"
#   https://ui.adsabs.harvard.edu/abs/2021PSJ.....2..125S/abstract
# Mass and density from Farnocchia et al. (2024), AJ 168, 21
#   "Mass, Density, and Radius of Asteroid (16) Psyche from High-precision Astrometry"
#   https://ui.adsabs.harvard.edu/abs/2024AJ....168...21F/abstract
"16 Psyche:Psyche" "Sol"
{
	Class	"asteroid"
	Mesh	"psyche.cmod"
	MeshCenter	[ -1.19 -0.7639 -4.925 ]
	Texture	"asteroid.*"
	Color	[ 0.438 0.424 0.401 ]  # a000016.2.txt
	BlendTexture	true
	Radius	139  # maximum semi-axis
	Mass<kg>	2.399e19
	Density	4172
	EllipticalOrbit
	{
		Epoch	2460200.5  # 2023 Sept 13
		Period	4.999182317265353
		SemiMajorAxis	2.923662128456563
		Eccentricity	0.1341931447944021
		Inclination	3.096815244138823
		AscendingNode	150.02696940
		ArgOfPericenter	229.4104409693524
		MeanAnomaly	243.1552879097505
	}
	BodyFrame	{ EquatorJ2000 {} }
	UniformRotation
	{
		Period	4.195948
		Inclination	83.9
		AscendingNode	126.3
		MeridianAngle	270.4
	}
	LunarLambert	0.9
	# GeomAlbedo	0.16
	Reflectivity	0.065  # for G_1 = 0.10 and G_2 = 0.440
	InfoURL	"https://en.wikipedia.org/wiki/16_Psyche"
}

# Mass, pole orientation and moon orbits from Beauvalet and Marchis (2014), Icarus 241, p. 13-25
#   "Multiple asteroid systems (45) Eugenia and (87) Sylvia:
#   Sensitivity to external and internal perturbations"
#   https://ui.adsabs.harvard.edu/abs/2014Icar..241...13B/abstract
